NORAD_CAT_ID,OBJECT_NAME,OBJECT_TYPE,EPOCH,MEAN_MOTION,ECCENTRICITY,INCLINATION,RA_OF_ASC_NODE,ARG_OF_PERICENTER,MEAN_ANOMALY,BSTAR,MEAN_MOTION_DOT,MEAN_MOTION_DDOT,TLE_LINE0,TLE_LINE1,TLE_LINE2,SEMIMAJOR_AXIS,PERIOD,APOGEE,PERIGEE,DECAYED
53132.0,STARLINK-4063,PAYLOAD,2023-12-16 23:22:56,15.08848453,0.0001359,53.2171,227.0321,81.9513,278.1633,5.7369e-05,6.25e-06,0.0,0 STARLINK-4063,1 53132U 22083A   23350.97426556  .00000625  00000-0  57369-4 0  9993,2 53132  53.2171 227.0321 0001359  81.9513 278.1633 15.08848453 78378,6917.855,95.437,540.66,538.779,0.0
53132.0,STARLINK-4063,PAYLOAD,2023-12-17 21:38:21,15.08834344,0.0001868,53.216,222.8712,58.3044,301.813,0.0006182,9.563e-05,0.0,0 STARLINK-4063,1 53132U 22083A   23351.90163582  .00009563  00000-0  61820-3 0  9990,2 53132  53.2160 222.8712 0001868  58.3044 301.8130 15.08834344 78511,6917.898,95.438,541.055,538.47,0.0
53132.0,STARLINK-4063,PAYLOAD,2023-12-17 23:13:44,15.08843349,0.0001816,53.2163,222.5761,60.5316,299.5857,0.00044877,6.862e-05,0.0,0 STARLINK-4063,1 53132U 22083A   23351.96787158  .00006862  00000-0  44877-3 0  9999,2 53132  53.2163 222.5761 0001816  60.5316 299.5857 15.08843349 79150,6917.87,95.437,540.991,538.479,0.0
53132.0,STARLINK-4063,PAYLOAD,2023-12-18 21:29:07,15.08846071,0.00018,53.2166,218.4081,67.9623,292.156,7.0196e-05,8.29e-06,0.0,0 STARLINK-4063,1 53132U 22083A   23352.89522760  .00000829  00000-0  70196-4 0  9999,2 53132  53.2166 218.4081 0001800  67.9623 292.1560 15.08846071 78667,6917.862,95.437,540.972,538.482,0.0
53132.0,STARLINK-4063,PAYLOAD,2023-12-19 19:44:32,15.08825133,0.000175,53.2158,214.2479,82.8612,277.2579,0.00037963,5.757e-05,0.0,0 STARLINK-4063,1 53132U 22083A   23353.82259794  .00005757  00000-0  37963-3 0  9996,2 53132  53.2158 214.2479 0001750  82.8612 277.2579 15.08825133 79437,6917.926,95.438,541.001,538.58,0.0
53132.0,STARLINK-4063,PAYLOAD,2023-12-19 21:19:54,15.08839272,0.000154,53.2147,213.9535,80.8344,279.2823,-4.1523e-05,-9.49e-06,0.0,0 STARLINK-4063,1 53132U 22083A   23353.88883093 -.00000949  00000-0 -41523-4 0  9995,2 53132  53.2147 213.9535 0001540  80.8344 279.2823 15.08839272 79445,6917.883,95.438,540.813,538.682,0.0
53132.0,STARLINK-4063,PAYLOAD,2023-12-20 21:10:42,15.08837073,0.0001424,53.2164,209.4857,97.0962,263.0192,-2.4028e-05,-6.7e-06,0.0,0 STARLINK-4063,1 53132U 22083A   23354.88243604 -.00000670  00000-0 -24028-4 0  9996,2 53132  53.2164 209.4857 0001424  97.0962 263.0192 15.08837073 78961,6917.889,95.438,540.739,538.769,0.0
53132.0,STARLINK-4063,PAYLOAD,2023-12-21 21:01:29,15.08841935,0.0001375,53.2162,205.0261,94.1447,265.9702,0.00015953,2.252e-05,0.0,0 STARLINK-4063,1 53132U 22083A   23355.87603124  .00002252  00000-0  15953-3 0  9995,2 53132  53.2162 205.0261 0001375  94.1447 265.9702 15.08841935 79119,6917.874,95.437,540.691,538.788,0.0
53132.0,STARLINK-4063,PAYLOAD,2023-12-22 19:16:51,15.08866223,0.0001149,53.2157,200.8613,127.6251,232.4845,0.00033167,4.998e-05,0.0,0 STARLINK-4063,1 53132U 22083A   23356.80337415  .00004998  00000-0  33167-3 0  9992,2 53132  53.2157 200.8613 0001149 127.6251 232.4845 15.08866223 79889,6917.8,95.436,540.46,538.87,0.0
53132.0,STARLINK-4063,PAYLOAD,2023-12-22 20:52:16,15.08840358,0.0001279,53.2158,200.5654,100.612,259.5016,0.00010966,1.458e-05,0.0,0 STARLINK-4063,1 53132U 22083A   23356.86963594  .00001458  00000-0  10966-3 0  9991,2 53132  53.2158 200.5654 0001279 100.6120 259.5016 15.08840358 79265,6917.879,95.438,540.629,538.859,0.0
53132.0,STARLINK-4063,PAYLOAD,2023-12-23 12:46:07,15.08840525,0.0001268,53.2153,197.5917,100.2602,259.8533,-1.9825e-05,-6.03e-06,0.0,0 STARLINK-4063,1 53132U 22083A   23357.53203531 -.00000603  00000-0 -19825-4 0  9991,2 53132  53.2153 197.5917 0001268 100.2602 259.8533 15.08840525 79360,6917.879,95.438,540.621,538.867,0.0
53132.0,STARLINK-4063,PAYLOAD,2023-12-23 19:07:40,15.08843838,0.0001286,53.2154,196.4035,97.3339,262.7799,4.5715e-05,4.4e-06,0.0,0 STARLINK-4063,1 53132U 22083A   23357.79699640  .00000440  00000-0  45715-4 0  9993,2 53132  53.2154 196.4035 0001286  97.3339 262.7799 15.08843838 79405,6917.869,95.437,540.623,538.844,0.0
53132.0,STARLINK-4063,PAYLOAD,2023-12-24 12:36:55,15.08843126,0.0001281,53.2157,193.1324,98.5949,261.5188,5.7005e-05,6.2e-06,0.0,0 STARLINK-4063,1 53132U 22083A   23358.52563693  .00000620  00000-0  57005-4 0  9998,2 53132  53.2157 193.1324 0001281  98.5949 261.5188 15.08843126 80140,6917.871,95.437,540.622,538.85,0.0
53132.0,STARLINK-4063,PAYLOAD,2023-12-24 20:33:50,15.08843949,0.0001271,53.2155,191.6456,94.6567,265.457,8.2124e-05,1.019e-05,0.0,0 STARLINK-4063,1 53132U 22083A   23358.85683519  .00001019  00000-0  82124-4 0  9997,2 53132  53.2155 191.6456 0001271  94.6567 265.4570 15.08843949 79564,6917.868,95.437,540.613,538.854,0.0
53132.0,STARLINK-4063,PAYLOAD,2023-12-25 12:27:42,15.08841389,0.0001305,53.2157,188.6723,95.1146,264.9995,8.9982e-05,1.145e-05,0.0,0 STARLINK-4063,1 53132U 22083A   23359.51923673  .00001145  00000-0  89982-4 0  9998,2 53132  53.2157 188.6723 0001305  95.1146 264.9995 15.08841389 79668,6917.876,95.437,540.644,538.838,0.0
53132.0,STARLINK-4063,PAYLOAD,2023-12-25 18:49:14,15.08842205,0.0001305,53.2156,187.4826,93.7535,266.3607,8.4694e-05,1.06e-05,0.0,0 STARLINK-4063,1 53132U 22083A   23359.78419600  .00001060  00000-0  84694-4 0  9998,2 53132  53.2156 187.4826 0001305  93.7535 266.3607 15.08842205 80334,6917.874,95.437,540.641,538.836,0.0
53132.0,STARLINK-4063,PAYLOAD,2023-12-25 20:24:37,15.08842755,0.0001349,53.216,187.1854,94.4024,265.7123,8.596e-05,1.081e-05,0.0,0 STARLINK-4063,1 53132U 22083A   23359.85043542  .00001081  00000-0  85960-4 0  9994,2 53132  53.2160 187.1854 0001349  94.4024 265.7123 15.08842755 79712,6917.872,95.437,540.67,538.804,0.0
53132.0,STARLINK-4063,PAYLOAD,2023-12-26 12:18:29,15.08839846,0.0001461,53.2162,184.2123,85.482,274.6339,6.4792e-05,7.43e-06,0.0,0 STARLINK-4063,1 53132U 22083A   23360.51283889  .00000743  00000-0  64792-4 0  9993,2 53132  53.2162 184.2123 0001461  85.4820 274.6339 15.08839846 79816,6917.881,95.438,540.757,538.735,0.0
53132.0,STARLINK-4063,PAYLOAD,2023-12-26 18:40:01,15.08839522,0.000144,53.2162,183.0228,86.7504,273.3653,5.0473e-05,5.15e-06,0.0,0 STARLINK-4063,1 53132U 22083A   23360.77779903  .00000515  00000-0  50473-4 0  9996,2 53132  53.2162 183.0228 0001440  86.7504 273.3653 15.08839522 79859,6917.882,95.438,540.743,538.751,0.0
53132.0,STARLINK-4063,PAYLOAD,2023-12-27 21:41:34,15.08846319,0.0001401,53.2163,177.967,93.7417,266.3735,9.7656e-05,1.267e-05,0.0,0 STARLINK-4063,1 53132U 22083A   23361.90387172  .00001267  00000-0  97656-4 0  9994,2 53132  53.2163 177.9670 0001401  93.7417 266.3735 15.08846319 80027,6917.861,95.437,540.695,538.757,0.0
53132.0,STARLINK-4063,PAYLOAD,2023-12-28 12:00:03,15.08838456,0.0001466,53.2162,175.2891,102.7166,257.399,4.3222e-05,4e-06,0.0,0 STARLINK-4063,1 53132U 22083A   23362.50003794  .00000400  00000-0  43222-4 0  9994,2 53132  53.2162 175.2891 0001466 102.7166 257.3990 15.08838456 80740,6917.885,95.438,540.764,538.736,0.0
53132.0,STARLINK-4063,PAYLOAD,2023-12-28 18:21:35,15.08839011,0.0001444,53.2163,174.0997,103.1061,257.0092,4.0681e-05,3.6e-06,0.0,0 STARLINK-4063,1 53132U 22083A   23362.76499743  .00000360  00000-0  40681-4 0  9996,2 53132  53.2163 174.0997 0001444 103.1061 257.0092 15.08839011 80153,6917.883,95.438,540.747,538.749,0.0
53132.0,STARLINK-4063,PAYLOAD,2023-12-29 18:12:22,15.08839794,0.0001425,53.2166,169.6379,97.9063,262.2091,2.1883e-05,6e-07,0.0,0 STARLINK-4063,1 53132U 22083A   23363.75859749  .00000060  00000-0  21883-4 0  9992,2 53132  53.2166 169.6379 0001425  97.9063 262.2091 15.08839794 80932,6917.881,95.438,540.732,538.76,0.0
53132.0,STARLINK-4063,PAYLOAD,2023-12-30 14:52:23,15.08836461,0.0001435,53.2167,165.7741,104.4738,255.6413,4.6851e-05,4.58e-06,0.0,0 STARLINK-4063,1 53132U 22083A   23364.61972001  .00000458  00000-0  46851-4 0  9998,2 53132  53.2167 165.7741 0001435 104.4738 255.6413 15.08836461 80434,6917.891,95.438,540.749,538.763,0.0
53132.0,STARLINK-4063,PAYLOAD,2023-12-30 16:27:46,15.0883669,0.0001446,53.217,165.477,105.3503,254.7649,4.7501e-05,4.68e-06,0.0,0 STARLINK-4063,1 53132U 22083A   23364.68595996  .00000468  00000-0  47501-4 0  9993,2 53132  53.2170 165.4770 0001446 105.3503 254.7649 15.08836690 80445,6917.891,95.438,540.756,538.755,0.0
53132.0,STARLINK-4063,PAYLOAD,2023-12-31 17:53:57,15.08837965,0.0001312,53.2166,160.7163,86.3716,273.7426,3.3462e-05,2.45e-06,0.0,0 STARLINK-4063,1 53132U 22083A   23365.74580258  .00000245  00000-0  33462-4 0  9990,2 53132  53.2166 160.7163 0001312  86.3716 273.7426 15.08837965 81238,6917.887,95.438,540.659,538.844,0.0
53132.0,STARLINK-4063,PAYLOAD,2024-01-01 14:33:58,15.08838228,0.0001251,53.2162,156.8507,74.3938,285.7192,6.4188e-05,7.34e-06,0.0,0 STARLINK-4063,1 53132U 22083A   24001.60692283  .00000734  00000-0  64188-4 0  9997,2 53132  53.2162 156.8507 0001251  74.3938 285.7192 15.08838228 80737,6917.886,95.438,540.616,538.885,0.0
53132.0,STARLINK-4063,PAYLOAD,2024-01-01 19:20:07,15.08841635,0.0001286,53.2168,155.9587,78.1684,281.9452,8.7876e-05,1.111e-05,0.0,0 STARLINK-4063,1 53132U 22083A   24001.80564015  .00001111  00000-0  87876-4 0  9999,2 53132  53.2168 155.9587 0001286  78.1684 281.9452 15.08841635 81395,6917.875,95.437,540.63,538.851,0.0
53132.0,STARLINK-4063,PAYLOAD,2024-01-02 14:24:45,15.08836947,0.0001514,53.2178,152.3842,68.776,291.3393,2.851e-05,1.66e-06,0.0,0 STARLINK-4063,1 53132U 22083A   24002.60052652  .00000166  00000-0  28510-4 0  9996,2 53132  53.2178 152.3842 0001514  68.7760 291.3393 15.08836947 80887,6917.89,95.438,540.802,538.707,0.0
53132.0,STARLINK-4063,PAYLOAD,2024-01-02 19:10:54,15.08831088,0.0001618,53.2184,151.493,59.8186,300.2967,0.00016745,2.377e-05,0.0,0 STARLINK-4063,1 53132U 22083A   24002.79924649  .00002377  00000-0  16745-3 0  9992,2 53132  53.2184 151.4930 0001618  59.8186 300.2967 15.08831088 81542,6917.908,95.438,540.892,538.653,0.0
